ONEWEB-0350             
1 49214U 21083AE  25106.52539208  .00000102  00000+0  24303-3 0  9999
2 49214  87.8978  45.0096 0001798  89.6852 270.4483 13.13471259174923
ONEWEB-0351             
1 49215U 21083AF  25106.44543365  .00000018  00000+0  12434-4 0  9999
2 49215  87.9316 359.3927 0001268  56.1953 303.9301 13.20771324180447
ONEWEB-0352             
1 49216U 21083AG  25106.58287465  .00000383  00000+0  10127-2 0  9991
2 49216  87.8982  45.0379 0001544  69.0349 291.0945 13.13471886175026
ONEWEB-0354             
1 49217U 21083AH  25106.39506240  .00000099  00000+0  21141-3 0  9999
2 49217  87.9320 359.3986 0001743  90.9278 269.2055 13.20772766180477
ONEWEB-0355             
1 49218U 21083AJ  25106.53560117 -.00000172  00000+0 -50596-3 0  9999
2 49218  87.8984  45.0452 0001720  80.9119 279.2205 13.13471259174890
ONEWEB-0357             
1 49219U 21083AK  25106.39189411  .00000023  00000+0  24729-4 0  9991
2 49219  87.9317 359.4076 0001632  78.2749 281.8568 13.20774614180478
ONEWEB-0332             
1 49279U 21090A   25106.80680497  .00000332  00000+0  86087-3 0  9998
2 49279  87.9089  14.5214 0001828  71.0818 289.0510 13.14501813171567
ONEWEB-0347             
1 49280U 21090B   25106.68544912 -.00000121  00000+0 -32998-3 0  9997
2 49280  87.9320 359.3560 0002050  70.7569 289.3786 13.20773775174744
